JILIN-1 KUANFU 01       
1 45016U 20003A   26190.80463727  .00002112  00000+0  13077-3 0  9992
2 45016  97.5021 264.3192 0008778 216.8637 143.1990 15.10848735358748
JILIN-1 KUANFU-01B      
1 49003U 21061A   26190.83960014  .00000796  00000+0  53188-4 0  9995
2 49003  97.5197 266.6131 0006575 357.2510   2.8682 15.09787001276769
JILIN-1 KUANFU 01C      
1 52443U 22048A   26190.83073309  .00002083  00000+0  13325-3 0  9994
2 52443  97.5252 267.5924 0016924 239.7589 120.1965 15.09581882230613
JILIN-1 KUANFU 02A      
1 57696U 23127A   26190.85432427  .00002670  00000+0  16455-3 0  9999
2 57696  97.5567 284.3862 0009967 257.4852 102.5263 15.10787288159057
JILIN-01 KUANFU 02B 1   
1 61189U 24169A   26190.72925411  .00002814  00000+0  18184-3 0  9995
2 61189  97.5574 279.9043 0002008   3.7611 356.3633 15.09034912 99221
JILIN-01 KUANFU 02B 2   
1 61190U 24169B   26190.77504324  .00002278  00000+0  14806-3 0  9999
2 61190  97.5570 279.3350 0004877 304.0732  56.0033 15.08998974 99236
JILIN-01 KUANFU 02B 3   
1 61191U 24169C   26190.78412041  .00002517  00000+0  16280-3 0  9999
2 61191  97.5566 279.7767 0012601 225.2779 134.7424 15.09037073 99230
JILIN-01 KUANFU 02B 4   
1 61192U 24169D   26190.75283131  .00002085  00000+0  13560-3 0  9991
2 61192  97.5526 279.2750 0013514 181.5821 178.5367 15.09017717 99235
JILIN-01 KUANFU 02B 5   
1 61193U 24169E   26190.73998875  .00002611  00000+0  16871-3 0  9991
2 61193  97.5574 280.0555 0012713 206.6285 153.4292 15.09050963 99234
JILIN-01 KUANFU 02B 6   
1 61194U 24169F   26190.76347160  .00001853  00000+0  12091-3 0  9997
2 61194  97.5555 279.9729 0015161 241.0114 118.9596 15.09012957 99243
