{"fetched_at":"2026-07-10T07:59:06.781Z","source":"https://celestrak.org/NORAD/elements/gp.php?NAME=JILIN&FORMAT=JSON","constellation":"jilin-1-kuanfu","records":[{"OBJECT_NAME":"JILIN-1 KUANFU 01","OBJECT_ID":"2020-003A","EPOCH":"2026-07-09T19:18:40.660128","CLASSIFICATION_TYPE":"U","MEAN_MOTION":15.10848735,"ECCENTRICITY":0.0008778,"INCLINATION":97.5021,"RA_OF_ASC_NODE":264.3192,"ARG_OF_PERICENTER":216.8637,"MEAN_ANOMALY":143.199,"EPHEMERIS_TYPE":0,"NORAD_CAT_ID":45016,"ELEMENT_SET_NO":999,"REV_AT_EPOCH":35874,"BSTAR":0.00013077,"MEAN_MOTION_DOT":0.00002112,"MEAN_MOTION_DDOT":0},{"OBJECT_NAME":"JILIN-1 KUANFU-01B","OBJECT_ID":"2021-061A","EPOCH":"2026-07-09T20:09:01.452096","CLASSIFICATION_TYPE":"U","MEAN_MOTION":15.09787001,"ECCENTRICITY":0.0006575,"INCLINATION":97.5197,"RA_OF_ASC_NODE":266.6131,"ARG_OF_PERICENTER":357.251,"MEAN_ANOMALY":2.8682,"EPHEMERIS_TYPE":0,"NORAD_CAT_ID":49003,"ELEMENT_SET_NO":999,"REV_AT_EPOCH":27676,"BSTAR":0.000053188,"MEAN_MOTION_DOT":0.00000796,"MEAN_MOTION_DDOT":0},{"OBJECT_NAME":"JILIN-1 KUANFU 01C","OBJECT_ID":"2022-048A","EPOCH":"2026-07-09T19:56:15.338976","CLASSIFICATION_TYPE":"U","MEAN_MOTION":15.09581882,"ECCENTRICITY":0.0016924,"INCLINATION":97.5252,"RA_OF_ASC_NODE":267.5924,"ARG_OF_PERICENTER":239.7589,"MEAN_ANOMALY":120.1965,"EPHEMERIS_TYPE":0,"NORAD_CAT_ID":52443,"ELEMENT_SET_NO":999,"REV_AT_EPOCH":23061,"BSTAR":0.00013325,"MEAN_MOTION_DOT":0.00002083,"MEAN_MOTION_DDOT":0},{"OBJECT_NAME":"JILIN-1 KUANFU 02A","OBJECT_ID":"2023-127A","EPOCH":"2026-07-09T20:30:13.616928","CLASSIFICATION_TYPE":"U","MEAN_MOTION":15.10787288,"ECCENTRICITY":0.0009967,"INCLINATION":97.5567,"RA_OF_ASC_NODE":284.3862,"ARG_OF_PERICENTER":257.4852,"MEAN_ANOMALY":102.5263,"EPHEMERIS_TYPE":0,"NORAD_CAT_ID":57696,"ELEMENT_SET_NO":999,"REV_AT_EPOCH":15905,"BSTAR":0.00016455,"MEAN_MOTION_DOT":0.0000267,"MEAN_MOTION_DDOT":0},{"OBJECT_NAME":"JILIN-01 KUANFU 02B 1","OBJECT_ID":"2024-169A","EPOCH":"2026-07-09T17:30:07.555104","CLASSIFICATION_TYPE":"U","MEAN_MOTION":15.09034912,"ECCENTRICITY":0.0002008,"INCLINATION":97.5574,"RA_OF_ASC_NODE":279.9043,"ARG_OF_PERICENTER":3.7611,"MEAN_ANOMALY":356.3633,"EPHEMERIS_TYPE":0,"NORAD_CAT_ID":61189,"ELEMENT_SET_NO":999,"REV_AT_EPOCH":9922,"BSTAR":0.00018184,"MEAN_MOTION_DOT":0.00002814,"MEAN_MOTION_DDOT":0},{"OBJECT_NAME":"JILIN-01 KUANFU 02B 2","OBJECT_ID":"2024-169B","EPOCH":"2026-07-09T18:36:03.735936","CLASSIFICATION_TYPE":"U","MEAN_MOTION":15.08998974,"ECCENTRICITY":0.0004877,"INCLINATION":97.557,"RA_OF_ASC_NODE":279.335,"ARG_OF_PERICENTER":304.0732,"MEAN_ANOMALY":56.0033,"EPHEMERIS_TYPE":0,"NORAD_CAT_ID":61190,"ELEMENT_SET_NO":999,"REV_AT_EPOCH":9923,"BSTAR":0.00014806,"MEAN_MOTION_DOT":0.00002278,"MEAN_MOTION_DDOT":0},{"OBJECT_NAME":"JILIN-01 KUANFU 02B 3","OBJECT_ID":"2024-169C","EPOCH":"2026-07-09T18:49:08.003424","CLASSIFICATION_TYPE":"U","MEAN_MOTION":15.09037073,"ECCENTRICITY":0.0012601,"INCLINATION":97.5566,"RA_OF_ASC_NODE":279.7767,"ARG_OF_PERICENTER":225.2779,"MEAN_ANOMALY":134.7424,"EPHEMERIS_TYPE":0,"NORAD_CAT_ID":61191,"ELEMENT_SET_NO":999,"REV_AT_EPOCH":9923,"BSTAR":0.0001628,"MEAN_MOTION_DOT":0.00002517,"MEAN_MOTION_DDOT":0},{"OBJECT_NAME":"JILIN-01 KUANFU 02B 4","OBJECT_ID":"2024-169D","EPOCH":"2026-07-09T18:04:04.625184","CLASSIFICATION_TYPE":"U","MEAN_MOTION":15.09017717,"ECCENTRICITY":0.0013514,"INCLINATION":97.5526,"RA_OF_ASC_NODE":279.275,"ARG_OF_PERICENTER":181.5821,"MEAN_ANOMALY":178.5367,"EPHEMERIS_TYPE":0,"NORAD_CAT_ID":61192,"ELEMENT_SET_NO":999,"REV_AT_EPOCH":9923,"BSTAR":0.0001356,"MEAN_MOTION_DOT":0.00002085,"MEAN_MOTION_DDOT":0},{"OBJECT_NAME":"JILIN-01 KUANFU 02B 5","OBJECT_ID":"2024-169E","EPOCH":"2026-07-09T17:45:35.028000","CLASSIFICATION_TYPE":"U","MEAN_MOTION":15.09050963,"ECCENTRICITY":0.0012713,"INCLINATION":97.5574,"RA_OF_ASC_NODE":280.0555,"ARG_OF_PERICENTER":206.6285,"MEAN_ANOMALY":153.4292,"EPHEMERIS_TYPE":0,"NORAD_CAT_ID":61193,"ELEMENT_SET_NO":999,"REV_AT_EPOCH":9923,"BSTAR":0.00016871,"MEAN_MOTION_DOT":0.00002611,"MEAN_MOTION_DDOT":0},{"OBJECT_NAME":"JILIN-01 KUANFU 02B 6","OBJECT_ID":"2024-169F","EPOCH":"2026-07-09T18:19:23.946240","CLASSIFICATION_TYPE":"U","MEAN_MOTION":15.09012957,"ECCENTRICITY":0.0015161,"INCLINATION":97.5555,"RA_OF_ASC_NODE":279.9729,"ARG_OF_PERICENTER":241.0114,"MEAN_ANOMALY":118.9596,"EPHEMERIS_TYPE":0,"NORAD_CAT_ID":61194,"ELEMENT_SET_NO":999,"REV_AT_EPOCH":9924,"BSTAR":0.00012091,"MEAN_MOTION_DOT":0.00001853,"MEAN_MOTION_DDOT":0}]}
